KUIPER-00198            
1 67770U 26030G   26062.57626158  .00036518  00000+0  10402-2 0  9995
2 67770  51.8809 248.5954 0002899  33.5772 326.5397 15.35743160  4152
KUIPER-00199            
1 67771U 26030H   26062.59604470  .00036696  00000+0  11005-2 0  9998
2 67771  51.8795 248.7206 0010218  43.9006 316.2790 15.34079384  4150
KUIPER-00200            
1 67772U 26030J   26062.62930812  .00038852  00000+0  10707-2 0  9999
2 67772  51.8808 248.2045 0001495 206.8641 153.2269 15.36748329  4169
KUIPER-00203            
1 67773U 26030K   26062.58336806 -.01647410  00000+0 -69298-1 0  9995
2 67773  51.8813 248.9124 0011734  48.3135 161.7082 15.26054568  2715
KUIPER-00205            
1 67774U 26030L   26062.57255372  .00039662  00000+0  11161-2 0  9991
2 67774  51.8810 248.5711 0002389   4.1086 355.9920 15.36087003  4151
KUIPER-00208            
1 67775U 26030M   26062.60713080  .00010323  00000+0  33159-3 0  9996
2 67775  51.8820 248.7995 0014435  45.2280 314.9876 15.32779406  4152
KUIPER-00209            
1 67776U 26030N   26062.61059457 -.00007358  00000+0 -22702-3 0  9997
2 67776  51.8812 248.8193 0013376  48.9025 311.3112 15.31334966  4156
KUIPER-00213            
1 67777U 26030P   26062.60775688  .00022834  00000+0  72475-3 0  9994
2 67777  51.8791 248.7947 0014919  47.0037 313.2196 15.32473115  4150
KUIPER-00214            
1 67778U 26030Q   26062.56663365  .00036285  00000+0  10089-2 0  9995
2 67778  51.8841 248.5387 0000941 202.3850 157.7095 15.36505345  4156
KUIPER-00215            
1 67779U 26030R   26062.59455134  .00026804  00000+0  80583-3 0  9995
2 67779  51.8828 248.7191 0009878  43.0534 317.1222 15.34164337  4158
KUIPER-00218            
1 67780U 26030S   26062.58583348  .00037272  00000+0  10902-2 0  9993
2 67780  51.8830 248.6616 0006400  34.0577 326.0818 15.34888543  4151
KUIPER-00220            
1 67781U 26030T   26062.59143837  .00035964  00000+0  10663-2 0  9990
2 67781  51.8796 248.6916 0008143  39.0718 321.0854 15.34466757  4158
KUIPER-00222            
1 67782U 26030U   26062.61118358  .00017852  00000+0  57226-3 0  9997
2 67782  51.8795 248.8165 0017689  41.2105 319.0211 15.32281049  4157
KUIPER-00223            
1 67783U 26030V   26062.59761239  .00026104  00000+0  78974-3 0  9990
2 67783  51.8813 248.7355 0012149  43.2526 316.9411 15.33956877  4151
KUIPER-00225            
1 67784U 26030W   26062.57774065  .00035897  00000+0  10272-2 0  9995
2 67784  51.8809 248.6045 0003902  23.5564 336.5600 15.35607268  4159
KUIPER-00226            
1 67785U 26030X   26062.62118107 -.00005180  00000+0 -15554-3 0  9994
2 67785  51.8807 248.8811 0019539  55.3612 304.9211 15.31335086  4150
